<?xml version="1.0" encoding="UTF-8"?>
<kml xmlns="http://www.opengis.net/kml/2.2">
    <Document>
        <Placemark xmlns:ns0="http://www.opengis.net/kml/2.2">
	<Style><LineStyle><color>ff0000ff</color></LineStyle><PolyStyle><fill>0</fill></PolyStyle></Style>
	<ExtendedData><SchemaData schemaUrl="#Wave23_v27MAR2025">
		<SimpleData name="area(ha)">1.111061819046874</SimpleData>
		<SimpleData name="site_id">230001_1.1</SimpleData>
		<SimpleData name="Land_parc">230001</SimpleData>
		<SimpleData name="district">Chhatarpur</SimpleData>
		<SimpleData name="block">Satai</SimpleData>
		<SimpleData name="village">Kasar</SimpleData>
		<SimpleData name="Land Type">Farmer</SimpleData>
		<SimpleData name="Instance">Wave 2023</SimpleData>
	</SchemaData></ExtendedData>
      <Polygon><outerBoundaryIs><LinearRing><coordinates>79.6520355,24.6739424,0 79.6519911,24.6739649,0 79.6519436,24.6739968,0 79.6518051,24.6739829,0 79.6517533,24.673999,0 79.651646,24.6740625,0 79.651569,24.674136,0 79.6515245,24.6741776,0 79.651516293709,24.6741913865748,0 79.6514895,24.6742364,0 79.6516294239825,24.6743473900127,0 79.6516326016359,24.6743499105761,0 79.6517081217759,24.6744098142613,0 79.6517620951088,24.6745030002634,0 79.6518319500561,24.6745322972328,0 79.6518322604415,24.6745324274075,0 79.6518997271076,24.6745520454997,0 79.6518997271076,24.6745986384563,0 79.6519071002995,24.6746080184178,0 79.6519537004404,24.6746673017291,0 79.6519698924403,24.6747163469007,0 79.6520261,24.6747237,0 79.6521423728329,24.6748059790711,0 79.6521608231053,24.6748190351665,0 79.6522984551041,24.674765085521,0 79.6524225937696,24.6747307539163,0 79.6525278417687,24.6747283016584,0 79.6526951591005,24.6746620906784,0 79.6527977084329,24.6745223118274,0 79.6528435857659,24.6744168645204,0 79.6529002577653,24.674281989928,0 79.6529272444318,24.6741912560292,0 79.6529272444318,24.6741201402245,0 79.6529110524319,24.6740122403056,0 79.6528543804324,24.6739435766722,0 79.6527491324334,24.6738920789223,0 79.6526249937678,24.6737866310824,0 79.6525088342651,24.6737888769175,0 79.6524981564356,24.6737890833588,0 79.6523956071032,24.6737890833587,0 79.6522795644375,24.6737449423769,0 79.6522132,24.6738016,0 79.6521249,24.6738075,0 79.6520807,24.6738539,0 79.6520407,24.6738913,0 79.652023,24.6739425,0 79.6520355,24.6739424,0</coordinates></LinearRing></outerBoundaryIs></Polygon>
  </Placemark>
  
    </Document>
</kml>