<?xml version="1.0" encoding="UTF-8"?>
<kml xmlns="http://www.opengis.net/kml/2.2">
    <Document>
        <Placemark xmlns:ns0="http://www.opengis.net/kml/2.2">
	<Style><LineStyle><color>ff0000ff</color></LineStyle><PolyStyle><fill>0</fill></PolyStyle></Style>
	<ExtendedData><SchemaData schemaUrl="#Wave23_v27MAR2025">
		<SimpleData name="area(ha)">0.707973255658277</SimpleData>
		<SimpleData name="site_id">230003_1.1</SimpleData>
		<SimpleData name="Land_parc">230003</SimpleData>
		<SimpleData name="district">Chhatarpur</SimpleData>
		<SimpleData name="block">Satai</SimpleData>
		<SimpleData name="village">Kasar</SimpleData>
		<SimpleData name="Land Type">Farmer</SimpleData>
		<SimpleData name="Instance">Wave 2023</SimpleData>
	</SchemaData></ExtendedData>
      <Polygon><outerBoundaryIs><LinearRing><coordinates>79.6494624867471,24.671582165374,0 79.6494666619438,24.6716289588365,0 79.6494869,24.6717387,0 79.6494862,24.671803,0 79.649488,24.6718643,0 79.6495183,24.6719163,0 79.6495785,24.6719681,0 79.6496436,24.6719664,0 79.6497191,24.6719813,0 79.6497861,24.6719814,0 79.6498108,24.6719518,0 79.6498303,24.6719079,0 79.6498883568136,24.6718325734285,0 79.6499384591744,24.671814867825,0 79.649949525721,24.6718064334981,0 79.6499634144636,24.6717958482423,0 79.6500605580431,24.6717218105198,0 79.6500606083899,24.6717171335544,0 79.6500666236584,24.671717187622,0 79.6500678902731,24.6717162222738,0 79.6502168056231,24.6716403410275,0 79.6502682,24.6716147,0 79.6504255654597,24.6715201956264,0 79.6503810300279,24.6713785503733,0 79.6503170103447,24.6712697869448,0 79.6502211,24.6711657,0 79.6501404,24.6710884,0 79.6500386,24.6710261,0 79.6499052,24.6710485,0 79.6498587,24.6710728,0 79.6498148176473,24.6710828349981,0 79.6497262,24.6711031,0 79.6495867,24.6711269,0 79.6494923,24.6711516,0 79.6494735889784,24.6711695148137,0 79.6494735830491,24.6711700653922,0 79.6494730192252,24.6711700603222,0 79.6494453,24.6711966,0 79.6494416,24.671332,0 79.6494613,24.6714416,0 79.6494608,24.6715028,0 79.6494614025121,24.6715311495953,0 79.6494624867471,24.671582165374,0</coordinates></LinearRing></outerBoundaryIs></Polygon>
  </Placemark>
  
    </Document>
</kml>